NORAD_CAT_ID,OBJECT_NAME,OBJECT_TYPE,EPOCH,MEAN_MOTION,ECCENTRICITY,INCLINATION,RA_OF_ASC_NODE,ARG_OF_PERICENTER,MEAN_ANOMALY,BSTAR,MEAN_MOTION_DOT,MEAN_MOTION_DDOT,TLE_LINE0,TLE_LINE1,TLE_LINE2,SEMIMAJOR_AXIS,PERIOD,APOGEE,PERIGEE,DECAYED
50828.0,STARLINK-3290,PAYLOAD,2023-01-03 10:25:20,15.08823214,0.0002924,53.2182,342.2085,22.9731,337.1391,0.00012093,1.636e-05,0.0,0 STARLINK-3290,1 50828U 22001AB  23003.43426302  .00001636  00000-0  12093-3 0  9994,2 50828  53.2182 342.2085 0002924  22.9731 337.1391 15.08823214 54944,6917.932,95.439,541.82,537.774,0.0
50828.0,STARLINK-3290,PAYLOAD,2023-01-04 08:40:44,15.08838766,0.0002927,53.2183,338.0459,23.582,336.5306,0.00012716,1.736e-05,0.0,0 STARLINK-3290,1 50828U 22001AB  23004.36162298  .00001736  00000-0  12716-3 0  9991,2 50828  53.2183 338.0459 0002927  23.5820 336.5306 15.08838766 55085,6917.884,95.438,541.774,537.724,0.0
50828.0,STARLINK-3290,PAYLOAD,2023-01-04 15:02:15,15.08852564,0.0002947,53.2186,336.8563,23.9117,336.2012,0.00020705,3.009e-05,0.0,0 STARLINK-3290,1 50828U 22001AB  23004.62657315  .00003009  00000-0  20705-3 0  9991,2 50828  53.2186 336.8563 0002947  23.9117 336.2012 15.08852564 56551,6917.842,95.437,541.746,537.668,0.0
50828.0,STARLINK-3290,PAYLOAD,2023-01-05 06:56:06,15.08862128,0.0002988,53.2173,333.8823,25.0987,335.015,0.00041097,6.262e-05,0.0,0 STARLINK-3290,1 50828U 22001AB  23005.28896809  .00006262  00000-0  41097-3 0  9998,2 50828  53.2173 333.8823 0002988  25.0987 335.0150 15.08862128 55226,6917.813,95.436,541.745,537.611,0.0
50828.0,STARLINK-3290,PAYLOAD,2023-01-06 06:46:53,15.0884422,0.0002617,53.2171,329.421,21.0651,339.0449,-0.00022074,-3.8e-05,0.0,0 STARLINK-3290,1 50828U 22001AB  23006.28256163 -.00003800  00000-0 -22074-3 0  9993,2 50828  53.2171 329.4210 0002617  21.0651 339.0449 15.08844220 56801,6917.866999999998,95.437,541.543,537.922,0.0
50828.0,STARLINK-3290,PAYLOAD,2023-01-06 21:05:22,15.08824859,0.0002191,53.2174,326.7405,24.0478,336.0616,-0.00023405,-4.01e-05,0.0,0 STARLINK-3290,1 50828U 22001AB  23006.87872831 -.00004010  00000-0 -23405-3 0  9997,2 50828  53.2174 326.7405 0002191  24.0478 336.0616 15.08824859 55467,6917.927,95.439,541.307,538.276,0.0
50828.0,STARLINK-3290,PAYLOAD,2023-01-07 03:26:54,15.08843744,0.0002806,53.2173,325.5563,24.1539,335.9584,0.00015425,2.168e-05,0.0,0 STARLINK-3290,1 50828U 22001AB  23007.14368779  .00002168  00000-0  15425-3 0  9992,2 50828  53.2173 325.5563 0002806  24.1539 335.9584 15.08843744 55501,6917.8690000000015,95.437,541.675,537.793,0.0
50828.0,STARLINK-3290,PAYLOAD,2023-01-07 20:56:10,15.08831928,0.0003531,53.2152,322.2852,38.1312,321.9929,0.00027696,4.121e-05,0.0,0 STARLINK-3290,1 50828U 22001AB  23007.87234061  .00004121  00000-0  27696-3 0  9992,2 50828  53.2152 322.2852 0003531  38.1312 321.9929 15.08831928 57043,6917.905,95.438,542.2130000000002,537.327,0.0
50828.0,STARLINK-3290,PAYLOAD,2023-01-08 03:17:42,15.0882076,0.0002824,53.2176,321.0959,19.0751,341.0347,-8.767100000000001e-05,-1.683e-05,0.0,0 STARLINK-3290,1 50828U 22001AB  23008.13730302 -.00001683  00000-0 -87671-4 0  9993,2 50828  53.2176 321.0959 0002824  19.0751 341.0347 15.08820760 57086,6917.939,95.439,541.758,537.851,0.0
50828.0,STARLINK-3290,PAYLOAD,2023-01-08 20:46:57,15.08849495,0.0002837,53.2172,317.8248,24.7237,335.389,0.0014306,0.0002256,0.0,0 STARLINK-3290,1 50828U 22001AB  23008.86594740  .00022560  00000-0  14306-2 0  9995,2 50828  53.2172 317.8248 0002837  24.7237 335.3890 15.08849495 57199,6917.851,95.437,541.679,537.754,0.0
50828.0,STARLINK-3290,PAYLOAD,2023-01-09 06:19:16,15.08857892,0.000292,53.2174,316.0408,22.133000000000006,337.9788,0.0010374,0.00016269,0.0,0 STARLINK-3290,1 50828U 22001AB  23009.26338416  .00016269  00000-0  10374-2 0  9996,2 50828  53.2174 316.0408 0002920  22.1330 337.9788 15.08857892 55821,6917.826,95.436,541.711,537.6709999999998,0.0
50828.0,STARLINK-3290,PAYLOAD,2023-01-10 04:34:40,15.08847434,0.0002971,53.2168,311.8772,22.0003,338.1116,0.00016384,2.321e-05,0.0,0 STARLINK-3290,1 50828U 22001AB  23010.19074237  .00002321  00000-0  16384-3 0  9990,2 50828  53.2168 311.8772 0002971  22.0003 338.1116 15.08847434 57396,6917.858,95.437,541.778,537.6669999999998,0.0
50828.0,STARLINK-3290,PAYLOAD,2023-01-10 12:31:35,15.08838409,0.0002929,53.2166,310.3908,23.0654,337.0469,-6.0289e-05,-1.248e-05,0.0,0 STARLINK-3290,1 50828U 22001AB  23010.52194382 -.00001248  00000-0 -60289-4 0  9994,2 50828  53.2166 310.3908 0002929  23.0654 337.0469 15.08838409 56014,6917.885,95.438,541.7769999999998,537.724,0.0
50828.0,STARLINK-3290,PAYLOAD,2023-01-11 12:22:23,15.08836635,0.0003073,53.2172,305.9305,26.4607,333.6542,-5.0679e-05,-1.095e-05,0.0,0 STARLINK-3290,1 50828U 22001AB  23011.51554813 -.00001095  00000-0 -50679-4 0  9995,2 50828  53.2172 305.9305 0003073  26.4607 333.6542 15.08836635 56167,6917.891,95.438,541.882,537.63,0.0
50828.0,STARLINK-3290,PAYLOAD,2023-01-11 18:43:54,15.08858018,0.0003246,53.2162,304.7374,22.893,337.2207,-0.00049289,-8.129e-05,0.0,0 STARLINK-3290,1 50828U 22001AB  23011.78049324 -.00008129  00000-0 -49289-3 0  9999,2 50828  53.2162 304.7374 0003246  22.8930 337.2207 15.08858018 57630,6917.825,95.436,541.936,537.445,0.0
50828.0,STARLINK-3290,PAYLOAD,2023-01-12 02:40:51,15.08848787,0.0003151,53.2172,303.253,25.3228,334.7918,0.00027037,4.018e-05,0.0,0 STARLINK-3290,1 50828U 22001AB  23012.11170169  .00004018  00000-0  27037-3 0  9997,2 50828  53.2172 303.2530 0003151  25.3228 334.7918 15.08848787 57680,6917.854,95.437,541.898,537.539,0.0
50828.0,STARLINK-3290,PAYLOAD,2023-01-12 18:34:43,15.08825984,0.0002375,53.2149,300.2778,24.6965,335.414,-4.1495e-05,-9.48e-06,0.0,0 STARLINK-3290,1 50828U 22001AB  23012.77411486 -.00000948  00000-0 -41495-4 0  9994,2 50828  53.2149 300.2778 0002375  24.6965 335.4140 15.08825984 57782,6917.923000000002,95.438,541.431,538.145,0.0
50828.0,STARLINK-3290,PAYLOAD,2023-01-12 21:45:29,15.08827865,0.0002429,53.2161,299.6857,31.3028,328.8108,-8.685600000000001e-05,-1.67e-05,0.0,0 STARLINK-3290,1 50828U 22001AB  23012.90659367 -.00001670  00000-0 -86856-4 0  9994,2 50828  53.2161 299.6857 0002429  31.3028 328.8108 15.08827865 56374,6917.917,95.438,541.4630000000002,538.102,0.0
50828.0,STARLINK-3290,PAYLOAD,2023-01-13 00:56:15,15.0885276,0.0002817,53.2171,299.0897,27.7608,332.3534,0.00043263,6.606e-05,0.0,0 STARLINK-3290,1 50828U 22001AB  23013.03906462  .00006606  00000-0  43263-3 0  9996,2 50828  53.2171 299.0897 0002817  27.7608 332.3534 15.08852760 57823,6917.840999999999,95.437,541.655,537.758,0.0
50828.0,STARLINK-3290,PAYLOAD,2023-01-13 02:31:38,15.08856202,0.0002903,53.218,298.7903,27.3633,332.7511,0.00054156,8.345e-05,0.0,0 STARLINK-3290,1 50828U 22001AB  23013.10530779  .00008345  00000-0  54156-3 0  9993,2 50828  53.2180 298.7903 0002903  27.3633 332.7511 15.08856202 56404,6917.831,95.437,541.7040000000001,537.688,0.0
50828.0,STARLINK-3290,PAYLOAD,2023-01-13 18:25:30,15.08831522,0.0002320999999999,53.2166,295.8199,34.4271,325.6871,-4.0987e-05,-9.4e-06,0.0,0 STARLINK-3290,1 50828U 22001AB  23013.76771522 -.00000940  00000-0 -40987-4 0  9991,2 50828  53.2166 295.8199 0002321  34.4271 325.6871 15.08831522 57931,6917.906,95.438,541.377,538.1659999999999,0.0
50828.0,STARLINK-3290,PAYLOAD,2023-01-13 21:36:16,15.08833154,0.0002284,53.2161,295.2252,34.7089,325.4052,3.077e-05,2.01e-06,0.0,0 STARLINK-3290,1 50828U 22001AB  23013.90019572  .00000201  00000-0  30770-4 0  9994,2 50828  53.2161 295.2252 0002284  34.7089 325.4052 15.08833154 56524,6917.901,95.438,541.346,538.186,0.0
50828.0,STARLINK-3290,PAYLOAD,2023-01-15 03:48:36,15.08854123,0.0002546999999999,53.2133,289.5777,41.5207,318.5978,0.00061544,9.524e-05,0.0,0 STARLINK-3290,1 50828U 22001AB  23015.15875673  .00009524  00000-0  61544-3 0  9994,2 50828  53.2133 289.5777 0002547  41.5207 318.5978 15.08854123 58140,6917.837,95.437,541.464,537.94,0.0
50828.0,STARLINK-3290,PAYLOAD,2023-01-15 11:45:32,15.08840837,0.0003026,53.216,288.0893,59.2664,300.8626,0.00038426,5.833e-05,0.0,0 STARLINK-3290,1 50828U 22001AB  23015.48996289  .00005833  00000-0  38426-3 0  9999,2 50828  53.2160 288.0893 0003026  59.2664 300.8626 15.08840837 58195,6917.878000000001,95.438,541.836,537.649,0.0
50828.0,STARLINK-3290,PAYLOAD,2023-01-15 21:17:50,15.0885544,0.0002189,53.213,286.3055,54.042,306.0775,0.00046435,7.113e-05,0.0,0 STARLINK-3290,1 50828U 22001AB  23015.88739403  .00007113  00000-0  46435-3 0  9998,2 50828  53.2130 286.3055 0002189  54.0420 306.0775 15.08855440 56822,6917.8330000000005,95.437,541.2130000000001,538.184,0.0
50828.0,STARLINK-3290,PAYLOAD,2023-01-16 00:28:36,15.08867691,0.0001807,53.2153,285.7083,51.6484,308.4671,0.00080745,0.00012596,0.0,0 STARLINK-3290,1 50828U 22001AB  23016.01987007  .00012596  00000-0  80745-3 0  9992,2 50828  53.2153 285.7083 0001807  51.6484 308.4671 15.08867691 58273,6917.795999999999,95.436,540.911,538.411,0.0
50828.0,STARLINK-3290,PAYLOAD,2023-01-16 17:57:52,15.08835038,0.0001671,53.2124,282.4388,55.5072,304.6078,-5.7638e-05,-1.205e-05,0.0,0 STARLINK-3290,1 50828U 22001AB  23016.74851888 -.00001205  00000-0 -57638-4 0  9992,2 50828  53.2124 282.4388 0001671  55.5072 304.6078 15.08835038 58389,6917.896,95.438,540.9169999999999,538.605,0.0
50828.0,STARLINK-3290,PAYLOAD,2023-01-17 03:30:11,15.08825027,0.000173,53.2153,280.6539,68.0415,292.0761,-0.00022665,-3.892e-05,0.0,0 STARLINK-3290,1 50828U 22001AB  23017.14596622 -.00003892  00000-0 -22665-3 0  9994,2 50828  53.2153 280.6539 0001730  68.0415 292.0761 15.08825027 58448,6917.926,95.439,540.988,538.594,0.0
50828.0,STARLINK-3290,PAYLOAD,2023-01-18 00:10:12,15.08836779,0.0001520999999999,53.2157,276.7882,72.9001,287.2158,0.00036873,5.585e-05,0.0,0 STARLINK-3290,1 50828U 22001AB  23018.00709007  .00005585  00000-0  36873-3 0  9998,2 50828  53.2157 276.7882 0001521  72.9001 287.2158 15.08836779 58578,6917.89,95.438,540.807,538.703,0.0
